{"type": "FeatureCollection", "features": [ {"type": "Feature", "properties": {"norad_id": 66924, "name": "CZ-8A R/B", "group": "last-30-days", "lat": -48.68189108496431, "lon": 14.359788722088908, "alt_km": 872.7241946694039, "timestamp": "2025-12-11T10:53:14.622822+00:00", "meta": {"OBJECT_NAME": "CZ-8A R/B", "OBJECT_ID": "2025-285K", "EPOCH": "2025-12-11T02:59:08.111616", "MEAN_MOTION": 14.30500747, "ECCENTRICITY": 0.0119311, "INCLINATION": 50.0062, "RA_OF_ASC_NODE": 123.0306, "ARG_OF_PERICENTER": 101.0445, "MEAN_ANOMALY": 260.3916, "EPHEMERIS_TYPE": 0, "CLASSIFICATION_TYPE": "U", "NORAD_CAT_ID": 66924, "ELEMENT_SET_NO": 999, "REV_AT_EPOCH": 69, "BSTAR": 9.2035e-05, "MEAN_MOTION_DOT": 9.4e-07, "MEAN_MOTION_DDOT": 0}, "tle": {"line1": "1 66924U 25285K   25345.12439944  .00000094  00000+0  92035-4 0  9999", "line2": "2 66924  50.0062 123.0306 0119311 101.0445 260.3916 14.30500747   691"}}, "geometry": {"type": "Point", "coordinates": [14.359788722088908, -48.68189108496431]}}, {"type": "Feature", "properties": {"norad_id": 66953, "name": "HULIANWANG DIGUI-114", "group": "last-30-days", "lat": -20.397511988173815, "lon": -14.67945602566107, "alt_km": 1011.9950311987614, "timestamp": "2025-12-11T10:53:14.622834+00:00", "meta": {"OBJECT_NAME": "HULIANWANG DIGUI-114", "OBJECT_ID": "2025-287A", "EPOCH": "2025-12-10T06:55:20.076384", "MEAN_MOTION": 13.69073793, "ECCENTRICITY": 0.00082441, "INCLINATION": 86.4956, "RA_OF_ASC_NODE": 347.0512, "ARG_OF_PERICENTER": 213.3003, "MEAN_ANOMALY": 146.7638, "EPHEMERIS_TYPE": 0, "CLASSIFICATION_TYPE": "U", "NORAD_CAT_ID": 66953, "ELEMENT_SET_NO": 999, "REV_AT_EPOCH": 19, "BSTAR": 9.649594e-06, "MEAN_MOTION_DOT": 2.5e-07, "MEAN_MOTION_DDOT": 0}, "tle": {"line1": "1 66953U 25287A   25344.28842681  .00000025  00000+0  96496-5 0  9995", "line2": "2 66953  86.4956 347.0512 0008244 213.3003 146.7638 13.69073793   194"}}, "geometry": {"type": "Point", "coordinates": [-14.67945602566107, -20.397511988173815]}}, {"type": "Feature", "properties": {"norad_id": 66954, "name": "HULIANWANG DIGUI-115", "group": "last-30-days", "lat": -19.548666988655732, "lon": -14.618094852690014, "alt_km": 1011.6907979802381, "timestamp": "2025-12-11T10:53:14.622850+00:00", "meta": {"OBJECT_NAME": "HULIANWANG DIGUI-115", "OBJECT_ID": "2025-287B", "EPOCH": "2025-12-10T10:25:40.434528", "MEAN_MOTION": 13.69168852, "ECCENTRICITY": 0.00081957, "INCLINATION": 86.4972, "RA_OF_ASC_NODE": 346.9997, "ARG_OF_PERICENTER": 212.0231, "MEAN_ANOMALY": 148.0431, "EPHEMERIS_TYPE": 0, "CLASSIFICATION_TYPE": "U", "NORAD_CAT_ID": 66954, "ELEMENT_SET_NO": 999, "REV_AT_EPOCH": 21, "BSTAR": 1.1007839e-05, "MEAN_MOTION_DOT": 2.6e-07, "MEAN_MOTION_DDOT": 0}, "tle": {"line1": "1 66954U 25287B   25344.43449577  .00000026  00000+0  11008-4 0  9996", "line2": "2 66954  86.4972 346.9997 0008195 212.0231 148.0431 13.69168852   212"}}, "geometry": {"type": "Point", "coordinates": [-14.618094852690014, -19.548666988655732]}}, {"type": "Feature", "properties": {"norad_id": 66955, "name": "HULIANWANG DIGUI-116", "group": "last-30-days", "lat": -18.426053957245134, "lon": -14.55410964649528, "alt_km": 1011.2930352091989, "timestamp": "2025-12-11T10:53:14.622860+00:00", "meta": {"OBJECT_NAME": "HULIANWANG DIGUI-116", "OBJECT_ID": "2025-287C", "EPOCH": "2025-12-09T09:52:18.926688", "MEAN_MOTION": 13.69296672, "ECCENTRICITY": 0.00076324, "INCLINATION": 86.4914, "RA_OF_ASC_NODE": 347.3632, "ARG_OF_PERICENTER": 209.8722, "MEAN_ANOMALY": 150.2003, "EPHEMERIS_TYPE": 0, "CLASSIFICATION_TYPE": "U", "NORAD_CAT_ID": 66955, "ELEMENT_SET_NO": 999, "REV_AT_EPOCH": 7, "BSTAR": 3.470494e-06, "MEAN_MOTION_DOT": 2e-07, "MEAN_MOTION_DDOT": 0}, "tle": {"line1": "1 66955U 25287C   25343.41133017  .00000020  00000+0  34705-5 0  9997", "line2": "2 66955  86.4914 347.3632 0007632 209.8722 150.2003 13.69296672    70"}}, "geometry": {"type": "Point", "coordinates": [-14.55410964649528, -18.426053957245134]}}, {"type": "Feature", "properties": {"norad_id": 66956, "name": "HULIANWANG DIGUI-117", "group": "last-30-days", "lat": -17.508115088319165, "lon": -14.47935893398725, "alt_km": 1010.9988756911553, "timestamp": "2025-12-11T10:53:14.622870+00:00", "meta": {"OBJECT_NAME": "HULIANWANG DIGUI-117", "OBJECT_ID": "2025-287D", "EPOCH": "2025-12-10T08:40:06.191328", "MEAN_MOTION": 13.69398761, "ECCENTRICITY": 0.00070713, "INCLINATION": 86.4971, "RA_OF_ASC_NODE": 347.0263, "ARG_OF_PERICENTER": 199.7388, "MEAN_ANOMALY": 160.3499, "EPHEMERIS_TYPE": 0, "CLASSIFICATION_TYPE": "U", "NORAD_CAT_ID": 66956, "ELEMENT_SET_NO": 999, "REV_AT_EPOCH": 20, "BSTAR": 1.0798013e-05, "MEAN_MOTION_DOT": 2.6e-07, "MEAN_MOTION_DDOT": 0}, "tle": {"line1": "1 66956U 25287D   25344.36118277  .00000026  00000+0  10798-4 0  9995", "line2": "2 66956  86.4971 347.0263 0007071 199.7388 160.3499 13.69398761   201"}}, "geometry": {"type": "Point", "coordinates": [-14.47935893398725, -17.508115088319165]}}, {"type": "Feature", "properties": {"norad_id": 66957, "name": "HULIANWANG DIGUI-118", "group": "last-30-days", "lat": -16.53694044947812, "lon": -14.418094200885527, "alt_km": 1010.5578539889939, "timestamp": "2025-12-11T10:53:14.622880+00:00", "meta": {"OBJECT_NAME": "HULIANWANG DIGUI-118", "OBJECT_ID": "2025-287E", "EPOCH": "2025-12-10T08:39:56.683872", "MEAN_MOTION": 13.69509074, "ECCENTRICITY": 0.00068996, "INCLINATION": 86.4942, "RA_OF_ASC_NODE": 347.0238, "ARG_OF_PERICENTER": 197.517, "MEAN_ANOMALY": 162.5753, "EPHEMERIS_TYPE": 0, "CLASSIFICATION_TYPE": "U", "NORAD_CAT_ID": 66957, "ELEMENT_SET_NO": 999, "REV_AT_EPOCH": 20, "BSTAR": -0.00019874691, "MEAN_MOTION_DOT": -1.56e-06, "MEAN_MOTION_DDOT": 0}, "tle": {"line1": "1 66957U 25287E   25344.36107273 -.00000156  00000+0 -19875-3 0  9990", "line2": "2 66957  86.4942 347.0238 0006899 197.5170 162.5753 13.69509074   202"}}, "geometry": {"type": "Point", "coordinates": [-14.418094200885527, -16.53694044947812]}}, {"type": "Feature", "properties": {"norad_id": 66958, "name": "CZ-6A R/B", "group": "last-30-days", "lat": -32.648544273246195, "lon": 168.83343758531618, "alt_km": 939.2106495536091, "timestamp": "2025-12-11T10:53:14.622890+00:00", "meta": {"OBJECT_NAME": "CZ-6A R/B", "OBJECT_ID": "2025-287F", "EPOCH": "2025-12-10T23:33:10.774944", "MEAN_MOTION": 13.94919329, "ECCENTRICITY": 0.01071902, "INCLINATION": 86.5059, "RA_OF_ASC_NODE": 346.7694, "ARG_OF_PERICENTER": 107.4137, "MEAN_ANOMALY": 253.8791, "EPHEMERIS_TYPE": 0, "CLASSIFICATION_TYPE": "U", "NORAD_CAT_ID": 66958, "ELEMENT_SET_NO": 999, "REV_AT_EPOCH": 29, "BSTAR": 0.00050888467, "MEAN_MOTION_DOT": 7.36e-06, "MEAN_MOTION_DDOT": 0}, "tle": {"line1": "1 66958U 25287F   25344.98137471  .00000736  00000+0  50888-3 0  9993", "line2": "2 66958  86.5059 346.7694 0107190 107.4137 253.8791 13.94919329   295"}}, "geometry": {"type": "Point", "coordinates": [168.83343758531618, -32.648544273246195]}}, {"type": "Feature", "properties": {"norad_id": 66988, "name": "YAOGAN-47", "group": "last-30-days", "lat": 30.378963469553508, "lon": -124.99746121215996, "alt_km": 491.2073215540813, "timestamp": "2025-12-11T10:53:14.622900+00:00", "meta": {"OBJECT_NAME": "YAOGAN-47", "OBJECT_ID": "2025-289A", "EPOCH": "2025-12-10T10:35:37.042080", "MEAN_MOTION": 15.23753581, "ECCENTRICITY": 0.00031837, "INCLINATION": 97.5219, "RA_OF_ASC_NODE": 49.5452, "ARG_OF_PERICENTER": 188.4341, "MEAN_ANOMALY": 171.6843, "EPHEMERIS_TYPE": 0, "CLASSIFICATION_TYPE": "U", "NORAD_CAT_ID": 66988, "ELEMENT_SET_NO": 999, "REV_AT_EPOCH": 19, "BSTAR": 0.00024588331, "MEAN_MOTION_DOT": 5.84e-05, "MEAN_MOTION_DDOT": 0}, "tle": {"line1": "1 66988U 25289A   25344.44140095  .00005840  00000+0  24588-3 0  9994", "line2": "2 66988  97.5219  49.5452 0003183 188.4341 171.6843 15.23753581   195"}}, "geometry": {"type": "Point", "coordinates": [-124.99746121215996, 30.378963469553508]}}, {"type": "Feature", "properties": {"norad_id": 66989, "name": "CZ-4B R/B", "group": "last-30-days", "lat": 63.706100529814655, "lon": -113.78425615759065, "alt_km": 392.0085089564682, "timestamp": "2025-12-11T10:53:14.622913+00:00", "meta": {"OBJECT_NAME": "CZ-4B R/B", "OBJECT_ID": "2025-289B", "EPOCH": "2025-12-10T14:28:25.343040", "MEAN_MOTION": 15.66312523, "ECCENTRICITY": 0.01519273, "INCLINATION": 97.5247, "RA_OF_ASC_NODE": 49.7881, "ARG_OF_PERICENTER": 11.1182, "MEAN_ANOMALY": 349.3371, "EPHEMERIS_TYPE": 0, "CLASSIFICATION_TYPE": "U", "NORAD_CAT_ID": 66989, "ELEMENT_SET_NO": 999, "REV_AT_EPOCH": 23, "BSTAR": 0.00028721477, "MEAN_MOTION_DOT": 0.00055635, "MEAN_MOTION_DDOT": 3.061406e-06}, "tle": {"line1": "1 66989U 25289B   25344.60307110  .00055635  30614-5  28721-3 0  9996", "line2": "2 66989  97.5247  49.7881 0151927  11.1182 349.3371 15.66312523   239"}}, "geometry": {"type": "Point", "coordinates": [-113.78425615759065, 63.706100529814655]}}, {"type": "Feature", "properties": {"norad_id": 66990, "name": "TJS-22", "group": "last-30-days", "lat": 13.694849762447157, "lon": 79.23194065306575, "alt_km": 3165.368654906474, "timestamp": "2025-12-11T10:53:14.622926+00:00", "meta": {"OBJECT_NAME": "TJS-22", "OBJECT_ID": "2025-290A", "EPOCH": "2025-12-10T07:11:32.845344", "MEAN_MOTION": 2.15443148, "ECCENTRICITY": 0.6664534, "INCLINATION": 20.1261, "RA_OF_ASC_NODE": 301.1464, "ARG_OF_PERICENTER": 180.6877, "MEAN_ANOMALY": 177.6237, "EPHEMERIS_TYPE": 0, "CLASSIFICATION_TYPE": "U", "NORAD_CAT_ID": 66990, "ELEMENT_SET_NO": 999, "REV_AT_EPOCH": 3, "BSTAR": 0.079788243, "MEAN_MOTION_DOT": -3.8e-07, "MEAN_MOTION_DDOT": 0}, "tle": {"line1": "1 66990U 25290A   25344.29968571 -.00000038  00000+0  79788-1 0  9994", "line2": "2 66990  20.1261 301.1464 6664534 180.6877 177.6237  2.15443148    32"}}, "geometry": {"type": "Point", "coordinates": [79.23194065306575, 13.694849762447157]}}]}